{
    "links": {
        "self": "http://www.neowsapp.com/rest/v1/neo/3303320?api_key=iIulBulltgU6a56xZRHN4H3l9WmuAYTsLGpBGhQ2"
    },
    "id": "3303320",
    "neo_reference_id": "3303320",
    "name": "(2005 VO118)",
    "designation": "2005 VO118",
    "nasa_jpl_url": "http://ssd.jpl.nasa.gov/sbdb.cgi?sstr=3303320",
    "absolute_magnitude_h": 24.6,
    "estimated_diameter": {
        "kilometers": {
            "estimated_diameter_min": 0.0319561887,
            "estimated_diameter_max": 0.0714562102
        },
        "meters": {
            "estimated_diameter_min": 31.9561886721,
            "estimated_diameter_max": 71.4562101727
        },
        "miles": {
            "estimated_diameter_min": 0.0198566489,
            "estimated_diameter_max": 0.0444008168
        },
        "feet": {
            "estimated_diameter_min": 104.8431420431,
            "estimated_diameter_max": 234.436392583
        }
    },
    "is_potentially_hazardous_asteroid": false,
    "close_approach_data": [
        {
            "close_approach_date": "2005-10-22",
            "close_approach_date_full": "2005-Oct-22 20:23",
            "epoch_date_close_approach": 1130012580000,
            "relative_velocity": {
                "kilometers_per_second": "6.5683162877",
                "kilometers_per_hour": "23645.9386356205",
                "miles_per_hour": "14692.6667038943"
            },
            "miss_distance": {
                "astronomical": "0.0894175604",
                "lunar": "34.7834309956",
                "kilometers": "13376676.576436348",
                "miles": "8311881.3975356824"
            },
            "orbiting_body": "Earth"
        }
    ],
    "orbital_data": {
        "orbit_id": "6",
        "orbit_determination_date": "2017-04-06 09:09:52",
        "first_observation_date": "2005-11-03",
        "last_observation_date": "2005-11-04",
        "data_arc_in_days": 1,
        "observations_used": 13,
        "orbit_uncertainty": "9",
        "minimum_orbit_intersection": ".0870121",
        "jupiter_tisserand_invariant": "3.182",
        "epoch_osculation": "2453678.5",
        "eccentricity": ".5768551439488587",
        "semi_major_axis": "2.547144345139403",
        "inclination": "4.45529555445567",
        "ascending_node_longitude": "50.00607901729683",
        "orbital_period": "1484.836935619528",
        "perihelion_distance": "1.077811027265491",
        "perihelion_argument": "342.3264717575414",
        "aphelion_distance": "4.016477663013315",
        "perihelion_time": "2453668.032141739893",
        "mean_anomaly": "2.537941293914671",
        "mean_motion": ".2424508653873126",
        "equinox": "J2000",
        "orbit_class": {
            "orbit_class_type": "AMO",
            "orbit_class_description": "Near-Earth asteroid orbits similar to that of 1221 Amor",
            "orbit_class_range": "1.017 AU < q (perihelion) < 1.3 AU"
        }
    },
    "is_sentry_object": false
}